{
    "links": {
        "self": "http://www.neowsapp.com/rest/v1/neo/3879550?api_key=iIulBulltgU6a56xZRHN4H3l9WmuAYTsLGpBGhQ2"
    },
    "id": "3879550",
    "neo_reference_id": "3879550",
    "name": "(2019 US5)",
    "designation": "2019 US5",
    "nasa_jpl_url": "http://ssd.jpl.nasa.gov/sbdb.cgi?sstr=3879550",
    "absolute_magnitude_h": 21.7,
    "estimated_diameter": {
        "kilometers": {
            "estimated_diameter_min": 0.1214940408,
            "estimated_diameter_max": 0.2716689341
        },
        "meters": {
            "estimated_diameter_min": 121.4940407996,
            "estimated_diameter_max": 271.6689340891
        },
        "miles": {
            "estimated_diameter_min": 0.0754928736,
            "estimated_diameter_max": 0.1688071972
        },
        "feet": {
            "estimated_diameter_min": 398.6025088171,
            "estimated_diameter_max": 891.3023057169
        }
    },
    "is_potentially_hazardous_asteroid": false,
    "close_approach_data": [
        {
            "close_approach_date": "2019-10-05",
            "close_approach_date_full": "2019-Oct-05 02:45",
            "epoch_date_close_approach": 1570243500000,
            "relative_velocity": {
                "kilometers_per_second": "23.936481541",
                "kilometers_per_hour": "86171.3335477249",
                "miles_per_hour": "53543.5155591405"
            },
            "miss_distance": {
                "astronomical": "0.1712234677",
                "lunar": "66.6059289353",
                "kilometers": "25614666.061933799",
                "miles": "15916215.4461684662"
            },
            "orbiting_body": "Earth"
        }
    ],
    "orbital_data": {
        "orbit_id": "3",
        "orbit_determination_date": "2019-10-31 07:11:42",
        "first_observation_date": "2019-10-22",
        "last_observation_date": "2019-10-28",
        "data_arc_in_days": 6,
        "observations_used": 32,
        "orbit_uncertainty": "9",
        "minimum_orbit_intersection": ".144471",
        "jupiter_tisserand_invariant": "3.337",
        "epoch_osculation": "2458779.5",
        "eccentricity": ".7116196153695573",
        "semi_major_axis": "2.124185747774387",
        "inclination": "8.873071887577693",
        "ascending_node_longitude": "297.1254102045449",
        "orbital_period": "1130.803548865276",
        "perihelion_distance": ".6125735029696823",
        "perihelion_argument": "344.4020561321766",
        "aphelion_distance": "3.635797992579092",
        "perihelion_time": "2458716.856783963927",
        "mean_anomaly": "19.94294923783713",
        "mean_motion": ".3183576849942221",
        "equinox": "J2000",
        "orbit_class": {
            "orbit_class_type": "APO",
            "orbit_class_description": "Near-Earth asteroid orbits which cross the Earth’s orbit similar to that of 1862 Apollo",
            "orbit_class_range": "a (semi-major axis) > 1.0 AU; q (perihelion) < 1.017 AU"
        }
    },
    "is_sentry_object": false
}